{
  "norad_id": 48217,
  "name": "ONEWEB-0189",
  "history": [
    {
      "epoch": "2026-03-28T13:18:19.950048Z",
      "apogee_km": 1207.2441399666013,
      "perigee_km": 1204.3179610259976,
      "latitude_deg": 7.94179717064738e-05,
      "longitude_deg": -79.76609726810415,
      "height_km": 1208.3487982804063,
      "semi_major_axis_km": 7583.9180504963,
      "eccentricity": 0.00019292,
      "inclination_deg": 87.8957,
      "raan_deg": 305.7902,
      "arg_perigee_deg": 77.2533,
      "mean_anomaly_deg": 282.8813,
      "mean_motion_rev_day": 13.14505219
    },
    {
      "epoch": "2026-03-29T03:55:12.488736Z",
      "apogee_km": 1207.2395033366174,
      "perigee_km": 1204.3227284292489,
      "latitude_deg": -5.9555807847185314e-05,
      "longitude_deg": 60.29358630876534,
      "height_km": 1208.35212633608,
      "semi_major_axis_km": 7583.918115882933,
      "eccentricity": 0.0001923,
      "inclination_deg": 87.8955,
      "raan_deg": 305.669,
      "arg_perigee_deg": 77.3417,
      "mean_anomaly_deg": 282.7927,
      "mean_motion_rev_day": 13.14505202
    },
    {
      "epoch": "2026-03-30T01:50:31.306272Z",
      "apogee_km": 1207.218252445391,
      "perigee_km": 1204.3454639818992,
      "latitude_deg": 2.4291610996119068e-06,
      "longitude_deg": 90.38258250288561,
      "height_km": 1208.346945062667,
      "semi_major_axis_km": 7583.918858213645,
      "eccentricity": 0.0001894,
      "inclination_deg": 87.8954,
      "raan_deg": 305.4867,
      "arg_perigee_deg": 76.9003,
      "mean_anomaly_deg": 283.2338,
      "mean_motion_rev_day": 13.14505009
    },
    {
      "epoch": "2026-03-30T01:50:31.307136Z",
      "apogee_km": 1207.2178732494485,
      "perigee_km": 1204.3458431778427,
      "latitude_deg": 8.036684811370988e-06,
      "longitude_deg": 90.38257909805836,
      "height_km": 1208.3470310218304,
      "semi_major_axis_km": 7583.918858213645,
      "eccentricity": 0.00018935,
      "inclination_deg": 87.8954,
      "raan_deg": 305.4867,
      "arg_perigee_deg": 76.9003,
      "mean_anomaly_deg": 283.2338,
      "mean_motion_rev_day": 13.14505009
    },
    {
      "epoch": "2026-03-30T14:37:47.330976Z",
      "apogee_km": 1207.2140428433995,
      "perigee_km": 1204.3517198017908,
      "latitude_deg": -1.8990706530296368e-05,
      "longitude_deg": -102.06546291835569,
      "height_km": 1208.3486901143303,
      "semi_major_axis_km": 7583.919881322595,
      "eccentricity": 0.00018871,
      "inclination_deg": 87.8954,
      "raan_deg": 305.3806,
      "arg_perigee_deg": 76.8806,
      "mean_anomaly_deg": 283.2534,
      "mean_motion_rev_day": 13.14504743
    },
    {
      "epoch": "2026-03-30T20:06:36.993024Z",
      "apogee_km": 1207.2066308819121,
      "perigee_km": 1204.3540162198306,
      "latitude_deg": 6.533187779649351e-05,
      "longitude_deg": 175.4569406651133,
      "height_km": 1208.3437227388588,
      "semi_major_axis_km": 7583.917323550871,
      "eccentricity": 0.00018807,
      "inclination_deg": 87.8954,
      "raan_deg": 305.335,
      "arg_perigee_deg": 76.7357,
      "mean_anomaly_deg": 283.3983,
      "mean_motion_rev_day": 13.14505408
    },
    {
      "epoch": "2026-03-31T07:04:16.415616Z",
      "apogee_km": 1207.197664836276,
      "perigee_km": 1204.3643130756009,
      "latitude_deg": -6.397453737448395e-05,
      "longitude_deg": 10.501425487337661,
      "height_km": 1208.3384527844748,
      "semi_major_axis_km": 7583.917988955938,
      "eccentricity": 0.0001868,
      "inclination_deg": 87.8952,
      "raan_deg": 305.2439,
      "arg_perigee_deg": 76.3952,
      "mean_anomaly_deg": 283.7385,
      "mean_motion_rev_day": 13.14505235
    },
    {
      "epoch": "2026-04-01T19:36:27.847008Z",
      "apogee_km": 1207.1773954580913,
      "perigee_km": 1204.3865132828832,
      "latitude_deg": -5.835236968645375e-05,
      "longitude_deg": -179.3503042049135,
      "height_km": 1208.3461318880948,
      "semi_major_axis_km": 7583.918954370487,
      "eccentricity": 0.000184,
      "inclination_deg": 87.8949,
      "raan_deg": 304.9403,
      "arg_perigee_deg": 76.4659,
      "mean_anomaly_deg": 283.6675,
      "mean_motion_rev_day": 13.14504984
    },
    {
      "epoch": "2026-04-02T13:52:33.517344Z",
      "apogee_km": 1207.1744162850955,
      "perigee_km": 1204.3880847198616,
      "latitude_deg": 2.1845388662243985e-05,
      "longitude_deg": -94.275977072652,
      "height_km": 1208.3335479648802,
      "semi_major_axis_km": 7583.918250502478,
      "eccentricity": 0.0001837,
      "inclination_deg": 87.8947,
      "raan_deg": 304.7885,
      "arg_perigee_deg": 75.9404,
      "mean_anomaly_deg": 284.193,
      "mean_motion_rev_day": 13.14505167
    },
    {
      "epoch": "2026-04-03T13:37:28.808256Z",
      "apogee_km": 1207.1908134517744,
      "perigee_km": 1204.3680797503484,
      "latitude_deg": 6.332282527768338e-05,
      "longitude_deg": -91.67897822371195,
      "height_km": 1208.3252006012494,
      "semi_major_axis_km": 7583.916446601061,
      "eccentricity": 0.0001861,
      "inclination_deg": 87.8942,
      "raan_deg": 304.5912,
      "arg_perigee_deg": 75.8537,
      "mean_anomaly_deg": 284.28,
      "mean_motion_rev_day": 13.14505636
    },
    {
      "epoch": "2026-04-04T15:12:00.614880Z",
      "apogee_km": 1207.16750720044,
      "perigee_km": 1204.3917937063743,
      "latitude_deg": 5.900769232288999e-06,
      "longitude_deg": -116.57515709693051,
      "height_km": 1208.3588519713808,
      "semi_major_axis_km": 7583.916650453407,
      "eccentricity": 0.000183,
      "inclination_deg": 87.8942,
      "raan_deg": 304.3779,
      "arg_perigee_deg": 77.0279,
      "mean_anomaly_deg": 283.1055,
      "mean_motion_rev_day": 13.14505583
    },
    {
      "epoch": "2026-04-05T13:07:19.250976Z",
      "apogee_km": 1207.1494206347243,
      "perigee_km": 1204.4063186263784,
      "latitude_deg": 8.638096162450177e-05,
      "longitude_deg": -86.48530399652839,
      "height_km": 1208.3495357051233,
      "semi_major_axis_km": 7583.914869630551,
      "eccentricity": 0.00018085,
      "inclination_deg": 87.8942,
      "raan_deg": 304.1957,
      "arg_perigee_deg": 76.5462,
      "mean_anomaly_deg": 283.587,
      "mean_motion_rev_day": 13.14506046
    },
    {
      "epoch": "2026-04-05T14:56:55.816800Z",
      "apogee_km": 1207.150160905695,
      "perigee_km": 1204.4078168841097,
      "latitude_deg": -2.3309641514104706e-05,
      "longitude_deg": -113.97789073496531,
      "height_km": 1208.3548264757442,
      "semi_major_axis_km": 7583.915988894902,
      "eccentricity": 0.0001808,
      "inclination_deg": 87.8942,
      "raan_deg": 304.1805,
      "arg_perigee_deg": 76.7209,
      "mean_anomaly_deg": 283.4122,
      "mean_motion_rev_day": 13.14505755
    },
    {
      "epoch": "2026-04-06T01:54:35.122752Z",
      "apogee_km": 1207.1442333370123,
      "perigee_km": 1204.4099289541955,
      "latitude_deg": 1.656460843649354e-05,
      "longitude_deg": 81.06708613086514,
      "height_km": 1208.3592933358743,
      "semi_major_axis_km": 7583.914081145604,
      "eccentricity": 0.00018027,
      "inclination_deg": 87.894,
      "raan_deg": 304.0894,
      "arg_perigee_deg": 76.9555,
      "mean_anomaly_deg": 283.1776,
      "mean_motion_rev_day": 13.14506251
    },
    {
      "epoch": "2026-04-07T12:37:10.083360Z",
      "apogee_km": 1207.157096469553,
      "perigee_km": 1204.4183895663537,
      "latitude_deg": 2.3458913361511062e-05,
      "longitude_deg": -81.29256383255377,
      "height_km": 1208.3585785066784,
      "semi_major_axis_km": 7583.924743017953,
      "eccentricity": 0.00018056,
      "inclination_deg": 87.8938,
      "raan_deg": 303.8009,
      "arg_perigee_deg": 76.4881,
      "mean_anomaly_deg": 283.645,
      "mean_motion_rev_day": 13.14503479
    },
    {
      "epoch": "2026-04-07T19:55:36.452064Z",
      "apogee_km": 1207.1566782889922,
      "perigee_km": 1204.4234309785033,
      "latitude_deg": -3.12949108627281e-05,
      "longitude_deg": 168.73656251188697,
      "height_km": 1208.360067440814,
      "semi_major_axis_km": 7583.9270546337475,
      "eccentricity": 0.0001802,
      "inclination_deg": 87.8938,
      "raan_deg": 303.74,
      "arg_perigee_deg": 76.4245,
      "mean_anomaly_deg": 283.7085,
      "mean_motion_rev_day": 13.14502878
    },
    {
      "epoch": "2026-04-08T14:11:42.271008Z",
      "apogee_km": 1207.1560089947216,
      "perigee_km": 1204.4333775168434,
      "latitude_deg": 4.6414340030995744e-05,
      "longitude_deg": -106.18983429397298,
      "height_km": 1208.3661452812778,
      "semi_major_axis_km": 7583.931693255782,
      "eccentricity": 0.0001795,
      "inclination_deg": 87.8936,
      "raan_deg": 303.5881,
      "arg_perigee_deg": 76.433,
      "mean_anomaly_deg": 283.7,
      "mean_motion_rev_day": 13.14501672
    },
    {
      "epoch": "2026-04-09T12:07:01.361568Z",
      "apogee_km": 1207.1429558885638,
      "perigee_km": 1204.4536924226168,
      "latitude_deg": -9.904423739756184e-05,
      "longitude_deg": -76.10198964776943,
      "height_km": 1208.3709622926153,
      "semi_major_axis_km": 7583.93532415559,
      "eccentricity": 0.0001773,
      "inclination_deg": 87.8935,
      "raan_deg": 303.4058,
      "arg_perigee_deg": 76.3108,
      "mean_anomaly_deg": 283.8218,
      "mean_motion_rev_day": 13.14500728
    },
    {
      "epoch": "2026-04-10T13:41:33.633888Z",
      "apogee_km": 1207.131406871904,
      "perigee_km": 1204.4648952727866,
      "latitude_deg": -1.6964138261556503e-05,
      "longitude_deg": -100.9994112958697,
      "height_km": 1208.369553482339,
      "semi_major_axis_km": 7583.9351510723445,
      "eccentricity": 0.0001758,
      "inclination_deg": 87.8936,
      "raan_deg": 303.1932,
      "arg_perigee_deg": 76.1363,
      "mean_anomaly_deg": 283.9962,
      "mean_motion_rev_day": 13.14500773
    }
  ]
}